CCSDS_OMM_VERS = 2.0
CREATION_DATE  = 
ORIGINATOR     = 

OBJECT_NAME    = STARLINK-36644
OBJECT_ID      = 2026-033A
CENTER_NAME    = EARTH
REF_FRAME      = TEME
TIME_SYSTEM    = UTC
MEAN_ELEMENT_THEORY = SGP/SGP4

EPOCH          = 2026-03-17T14:00:01.999872
MEAN_MOTION    = 15.56464434
ECCENTRICITY   = .0001458
INCLINATION    = 42.9991
RA_OF_ASC_NODE = 223.8508
ARG_OF_PERICENTER = 278.3179
MEAN_ANOMALY   = 145.7739

EPHEMERIS_TYPE = 0
CLASSIFICATION_TYPE = U
NORAD_CAT_ID   = 67821
ELEMENT_SET_NO = 999
REV_AT_EPOCH   = 593
BSTAR          = -.29832125E-1
MEAN_MOTION_DOT = -.191247E-1
MEAN_MOTION_DDOT = 0

CCSDS_OMM_VERS = 2.0
CREATION_DATE  = 
ORIGINATOR     = 

OBJECT_NAME    = STARLINK-36643
OBJECT_ID      = 2026-033B
CENTER_NAME    = EARTH
REF_FRAME      = TEME
TIME_SYSTEM    = UTC
MEAN_ELEMENT_THEORY = SGP/SGP4

EPOCH          = 2026-03-17T14:00:01.999872
MEAN_MOTION    = 15.51884732
ECCENTRICITY   = .00015063
INCLINATION    = 42.9997
RA_OF_ASC_NODE = 224.1121
ARG_OF_PERICENTER = 252.4062
MEAN_ANOMALY   = 65.8171

EPHEMERIS_TYPE = 0
CLASSIFICATION_TYPE = U
NORAD_CAT_ID   = 67822
ELEMENT_SET_NO = 999
REV_AT_EPOCH   = 593
BSTAR          = -.34634288E-1
MEAN_MOTION_DOT = -.1912592E-1
MEAN_MOTION_DDOT = 0

CCSDS_OMM_VERS = 2.0
CREATION_DATE  = 
ORIGINATOR     = 

OBJECT_NAME    = STARLINK-36646
OBJECT_ID      = 2026-033C
CENTER_NAME    = EARTH
REF_FRAME      = TEME
TIME_SYSTEM    = UTC
MEAN_ELEMENT_THEORY = SGP/SGP4

EPOCH          = 2026-03-17T14:00:01.999872
MEAN_MOTION    = 15.54916550
ECCENTRICITY   = .00015298
INCLINATION    = 42.9997
RA_OF_ASC_NODE = 223.9156
ARG_OF_PERICENTER = 277.6561
MEAN_ANOMALY   = 119.8798

EPHEMERIS_TYPE = 0
CLASSIFICATION_TYPE = U
NORAD_CAT_ID   = 67823
ELEMENT_SET_NO = 999
REV_AT_EPOCH   = 593
BSTAR          = -.31589415E-1
MEAN_MOTION_DOT = -.1911382E-1
MEAN_MOTION_DDOT = 0

CCSDS_OMM_VERS = 2.0
CREATION_DATE  = 
ORIGINATOR     = 

OBJECT_NAME    = STARLINK-36647
OBJECT_ID      = 2026-033D
CENTER_NAME    = EARTH
REF_FRAME      = TEME
TIME_SYSTEM    = UTC
MEAN_ELEMENT_THEORY = SGP/SGP4

EPOCH          = 2026-03-17T14:00:01.999872
MEAN_MOTION    = 15.53009919
ECCENTRICITY   = .00014955
INCLINATION    = 43.0001
RA_OF_ASC_NODE = 224.0191
ARG_OF_PERICENTER = 259.0780
MEAN_ANOMALY   = 97.2969

EPHEMERIS_TYPE = 0
CLASSIFICATION_TYPE = U
NORAD_CAT_ID   = 67824
ELEMENT_SET_NO = 999
REV_AT_EPOCH   = 593
BSTAR          = -.32261215E-1
MEAN_MOTION_DOT = -.1829904E-1
MEAN_MOTION_DDOT = 0

CCSDS_OMM_VERS = 2.0
CREATION_DATE  = 
ORIGINATOR     = 

OBJECT_NAME    = STARLINK-36648
OBJECT_ID      = 2026-033E
CENTER_NAME    = EARTH
REF_FRAME      = TEME
TIME_SYSTEM    = UTC
MEAN_ELEMENT_THEORY = SGP/SGP4

EPOCH          = 2026-03-17T14:00:01.999872
MEAN_MOTION    = 15.63439023
ECCENTRICITY   = .00010875
INCLINATION    = 42.9996
RA_OF_ASC_NODE = 223.4783
ARG_OF_PERICENTER = 272.3971
MEAN_ANOMALY   = 301.3504

EPHEMERIS_TYPE = 0
CLASSIFICATION_TYPE = U
NORAD_CAT_ID   = 67825
ELEMENT_SET_NO = 999
REV_AT_EPOCH   = 593
BSTAR          = -.22782791E-1
MEAN_MOTION_DOT = -.1912853E-1
MEAN_MOTION_DDOT = 0

CCSDS_OMM_VERS = 2.0
CREATION_DATE  = 
ORIGINATOR     = 

OBJECT_NAME    = STARLINK-35865
OBJECT_ID      = 2026-033F
CENTER_NAME    = EARTH
REF_FRAME      = TEME
TIME_SYSTEM    = UTC
MEAN_ELEMENT_THEORY = SGP/SGP4

EPOCH          = 2026-03-17T14:00:01.999872
MEAN_MOTION    = 15.56921582
ECCENTRICITY   = .00016268
INCLINATION    = 42.9994
RA_OF_ASC_NODE = 223.7715
ARG_OF_PERICENTER = 279.0967
MEAN_ANOMALY   = 176.3998

EPHEMERIS_TYPE = 0
CLASSIFICATION_TYPE = U
NORAD_CAT_ID   = 67826
ELEMENT_SET_NO = 999
REV_AT_EPOCH   = 593
BSTAR          = -.29266045E-1
MEAN_MOTION_DOT = -.1909347E-1
MEAN_MOTION_DDOT = 0

CCSDS_OMM_VERS = 2.0
CREATION_DATE  = 
ORIGINATOR     = 

OBJECT_NAME    = STARLINK-36289
OBJECT_ID      = 2026-033G
CENTER_NAME    = EARTH
REF_FRAME      = TEME
TIME_SYSTEM    = UTC
MEAN_ELEMENT_THEORY = SGP/SGP4

EPOCH          = 2026-03-17T14:00:01.999872
MEAN_MOTION    = 15.52711444
ECCENTRICITY   = .00015213
INCLINATION    = 43.0000
RA_OF_ASC_NODE = 224.0123
ARG_OF_PERICENTER = 278.8016
MEAN_ANOMALY   = 79.6714

EPHEMERIS_TYPE = 0
CLASSIFICATION_TYPE = U
NORAD_CAT_ID   = 67827
ELEMENT_SET_NO = 999
REV_AT_EPOCH   = 593
BSTAR          = -.37135769E-1
MEAN_MOTION_DOT = -.209123E-1
MEAN_MOTION_DDOT = 0

CCSDS_OMM_VERS = 2.0
CREATION_DATE  = 
ORIGINATOR     = 

OBJECT_NAME    = STARLINK-36670
OBJECT_ID      = 2026-033H
CENTER_NAME    = EARTH
REF_FRAME      = TEME
TIME_SYSTEM    = UTC
MEAN_ELEMENT_THEORY = SGP/SGP4

EPOCH          = 2026-03-17T14:00:01.999872
MEAN_MOTION    = 15.54483289
ECCENTRICITY   = .00015172
INCLINATION    = 42.9990
RA_OF_ASC_NODE = 223.8870
ARG_OF_PERICENTER = 279.5630
MEAN_ANOMALY   = 129.2216

EPHEMERIS_TYPE = 0
CLASSIFICATION_TYPE = U
NORAD_CAT_ID   = 67828
ELEMENT_SET_NO = 999
REV_AT_EPOCH   = 593
BSTAR          = -.32060888E-1
MEAN_MOTION_DOT = -.1909238E-1
MEAN_MOTION_DDOT = 0

CCSDS_OMM_VERS = 2.0
CREATION_DATE  = 
ORIGINATOR     = 

OBJECT_NAME    = STARLINK-36144
OBJECT_ID      = 2026-033J
CENTER_NAME    = EARTH
REF_FRAME      = TEME
TIME_SYSTEM    = UTC
MEAN_ELEMENT_THEORY = SGP/SGP4

EPOCH          = 2026-03-17T14:00:01.999872
MEAN_MOTION    = 15.53233439
ECCENTRICITY   = .00015657
INCLINATION    = 42.9999
RA_OF_ASC_NODE = 223.9432
ARG_OF_PERICENTER = 263.6991
MEAN_ANOMALY   = 122.3299

EPHEMERIS_TYPE = 0
CLASSIFICATION_TYPE = U
NORAD_CAT_ID   = 67829
ELEMENT_SET_NO = 999
REV_AT_EPOCH   = 593
BSTAR          = -.26100635E-1
MEAN_MOTION_DOT = -.1524493E-1
MEAN_MOTION_DDOT = 0

CCSDS_OMM_VERS = 2.0
CREATION_DATE  = 
ORIGINATOR     = 

OBJECT_NAME    = STARLINK-36611
OBJECT_ID      = 2026-033K
CENTER_NAME    = EARTH
REF_FRAME      = TEME
TIME_SYSTEM    = UTC
MEAN_ELEMENT_THEORY = SGP/SGP4

EPOCH          = 2026-03-17T14:00:01.999872
MEAN_MOTION    = 15.55529771
ECCENTRICITY   = .00015675
INCLINATION    = 42.9992
RA_OF_ASC_NODE = 223.8051
ARG_OF_PERICENTER = 279.1733
MEAN_ANOMALY   = 162.4498

EPHEMERIS_TYPE = 0
CLASSIFICATION_TYPE = U
NORAD_CAT_ID   = 67830
ELEMENT_SET_NO = 999
REV_AT_EPOCH   = 593
BSTAR          = -.30819225E-1
MEAN_MOTION_DOT = -.1908339E-1
MEAN_MOTION_DDOT = 0

CCSDS_OMM_VERS = 2.0
CREATION_DATE  = 
ORIGINATOR     = 

OBJECT_NAME    = STARLINK-36661
OBJECT_ID      = 2026-033L
CENTER_NAME    = EARTH
REF_FRAME      = TEME
TIME_SYSTEM    = UTC
MEAN_ELEMENT_THEORY = SGP/SGP4

EPOCH          = 2026-03-17T14:00:01.999872
MEAN_MOTION    = 15.50544275
ECCENTRICITY   = .00016027
INCLINATION    = 43.0001
RA_OF_ASC_NODE = 224.1379
ARG_OF_PERICENTER = 281.1602
MEAN_ANOMALY   = 25.8914

EPHEMERIS_TYPE = 0
CLASSIFICATION_TYPE = U
NORAD_CAT_ID   = 67831
ELEMENT_SET_NO = 999
REV_AT_EPOCH   = 593
BSTAR          = .8829578E-3
MEAN_MOTION_DOT = .51736E-3
MEAN_MOTION_DDOT = 0

CCSDS_OMM_VERS = 2.0
CREATION_DATE  = 
ORIGINATOR     = 

OBJECT_NAME    = STARLINK-36662
OBJECT_ID      = 2026-033M
CENTER_NAME    = EARTH
REF_FRAME      = TEME
TIME_SYSTEM    = UTC
MEAN_ELEMENT_THEORY = SGP/SGP4

EPOCH          = 2026-03-17T14:00:01.999872
MEAN_MOTION    = 15.78712033
ECCENTRICITY   = .00013942
INCLINATION    = 42.9993
RA_OF_ASC_NODE = 222.0313
ARG_OF_PERICENTER = 283.0422
MEAN_ANOMALY   = 145.7651

EPHEMERIS_TYPE = 0
CLASSIFICATION_TYPE = U
NORAD_CAT_ID   = 67832
ELEMENT_SET_NO = 999
REV_AT_EPOCH   = 593
BSTAR          = -.7937551E-2
MEAN_MOTION_DOT = -.1265822E-1
MEAN_MOTION_DDOT = 0

