STARLINK-36644          
1 67821U 26033A   26076.58335648 -.01912470  00000+0 -29832-1 0  9991
2 67821  42.9991 223.8508 0001458 278.3179 145.7739 15.56464434  5938
STARLINK-36643          
1 67822U 26033B   26076.58335648 -.01912592  00000+0 -34634-1 0  9993
2 67822  42.9997 224.1121 0001506 252.4062  65.8171 15.51884732  5932
STARLINK-36646          
1 67823U 26033C   26076.58335648 -.01911382  00000+0 -31589-1 0  9996
2 67823  42.9997 223.9156 0001529 277.6561 119.8798 15.54916550  5938
STARLINK-36647          
1 67824U 26033D   26076.58335648 -.01829904  00000+0 -32261-1 0  9993
2 67824  43.0001 224.0191 0001495 259.0780  97.2969 15.53009919  5937
STARLINK-36648          
1 67825U 26033E   26076.58335648 -.01912853  00000+0 -22783-1 0  9998
2 67825  42.9996 223.4783 0001087 272.3971 301.3504 15.63439023  5934
STARLINK-35865          
1 67826U 26033F   26076.58335648 -.01909347  00000+0 -29266-1 0  9996
2 67826  42.9994 223.7715 0001626 279.0967 176.3998 15.56921582  5934
STARLINK-36289          
1 67827U 26033G   26076.58335648 -.02091230  00000+0 -37136-1 0  9996
2 67827  43.0000 224.0123 0001521 278.8016  79.6714 15.52711444  5939
STARLINK-36670          
1 67828U 26033H   26076.58335648 -.01909238  00000+0 -32061-1 0  9994
2 67828  42.9990 223.8870 0001517 279.5630 129.2216 15.54483289  5931
STARLINK-36144          
1 67829U 26033J   26076.58335648 -.01524493  00000+0 -26101-1 0  9999
2 67829  42.9999 223.9432 0001565 263.6991 122.3299 15.53233439  5937
STARLINK-36611          
1 67830U 26033K   26076.58335648 -.01908339  00000+0 -30819-1 0  9997
2 67830  42.9992 223.8051 0001567 279.1733 162.4498 15.55529771  5931
STARLINK-36661          
1 67831U 26033L   26076.58335648  .00051736  00000+0  88296-3 0  9999
2 67831  43.0001 224.1379 0001602 281.1602  25.8914 15.50544275  5936
STARLINK-36662          
1 67832U 26033M   26076.58335648 -.01265822  00000+0 -79376-2 0  9994
2 67832  42.9993 222.0313 0001394 283.0422 145.7651 15.78712033  5938
